0 BREEZE-M DEB
1 38880U 12044M   13282.76468198  .00080769  32743-5  23558-2 0  3693
2 38880 049.8702 353.9567 2376277 100.7711 286.7231 10.66673752 37268
0 BREEZE-M DEB
1 38880U 12044M   13283.42055122  .00086027  33384-5  25074-2 0  3708
2 38880 049.8702 352.3708 2375795 102.0959 285.3810 10.66771363 37334
0 BREEZE-M DEB
1 38880U 12044M   13284.17003491  .00079226  32538-5  23142-2 0  3711
2 38880 049.8702 350.5585 2375248 103.6122 283.8263 10.66868627 37413
0 BREEZE-M DEB
1 38880U 12044M   13286.13706774  .00071990  31674-5  21090-2 0  3735
2 38880 049.8701 345.8005 2373816 107.5840 279.6572 10.67140575 37620
0 BREEZE-M DEB
1 38880U 12044M   13287.16720667  .00070206  31446-5  20603-2 0  3742
2 38880 049.8697 343.3082 2373113 109.6639 277.4178 10.67266602 37731
0 BREEZE-M DEB
1 38880U 12044M   13288.10357207  .00095788  34553-5  27993-2 0  3757
2 38880 049.8694 341.0422 2372359 111.5526 275.3485 10.67424299 37836
0 BREEZE-M DEB
1 38880U 12044M   13289.13339221  .00087328  33362-5  25547-2 0  3769
2 38880 049.8688 338.5496 2371509 113.6325 273.0312 10.67598025 37942
0 BREEZE-M DEB
1 38880U 12044M   13289.69504415  .00088563  33492-5  25910-2 0  3770
2 38880 049.8685 337.1897 2371115 114.7642 271.7541 10.67675659 38002
0 BREEZE-M DEB
1 38880U 12044M   13290.16305208  .00083060  32766-5  24311-2 0  3788
2 38880 049.8682 336.0562 2370812 115.7110 270.6767 10.67741552 38059
0 BREEZE-M DEB
1 38880U 12044M   13290.44384897  .00063275  00000-0  18156-2 0  3798
2 38880 049.8692 335.3729 2370863 116.3038 270.0562 10.67809030 38085
0 BREEZE-M DEB
1 38880U 12044M   13291.47329944  .00081057  32442-5  23701-2 0  3794
2 38880 049.8674 332.8817 2369929 118.3572 267.6200 10.67938500 38199
0 BREEZE-M DEB
1 38880U 12044M   13292.50260168  .00080238  32272-5  23442-2 0  3806
2 38880 049.8671 330.3872 2369260 120.4376 265.1705 10.68087198 38309
0 BREEZE-M DEB
1 38880U 12044M   13293.43819913  .00081036  32296-5  23657-2 0  3819
2 38880 049.8668 328.1192 2368673 122.3301 262.9064 10.68215264 38402
0 BREEZE-M DEB
1 38880U 12044M   13294.09304437  .00080911  32227-5  23603-2 0  3829
2 38880 049.8666 326.5314 2368295 123.6564 261.2996 10.68302075 38473
0 BREEZE-M DEB
1 38880U 12044M   13295.12196233  .00082075  32279-5  23918-2 0  3837
2 38880 049.8664 324.0364 2367645 125.7393 258.7416 10.68445390 38588
0 BREEZE-M DEB
1 38880U 12044M   13296.15073193  .00084245  32456-5  24528-2 0  3847
2 38880 049.8664 321.5411 2366903 127.8210 256.1426 10.68604490 38693
